<?xml version="1.0" encoding="utf-8" ?>
<kml xmlns="http://www.opengis.net/kml/2.2">
<Document id="root_doc">
<Schema name="loganOutlets_Moved2" id="loganOutlets_Moved2">
	<SimpleField name="id" type="int"></SimpleField>
	<SimpleField name="id_down" type="int"></SimpleField>
	<SimpleField name="ad8" type="float"></SimpleField>
</Schema>
<Folder><name>loganOutlets_Moved2</name>
  <Placemark id="loganOutlets_Moved2.1">
	<ExtendedData><SchemaData schemaUrl="#loganOutlets_Moved2">
		<SimpleData name="id">10</SimpleData>
		<SimpleData name="id_down">-2147483647</SimpleData>
		<SimpleData name="ad8">620230</SimpleData>
	</SchemaData></ExtendedData>
      <Point><coordinates>-111.781359043126,41.7422797664023</coordinates></Point>
  </Placemark>
  <Placemark id="loganOutlets_Moved2.2">
	<ExtendedData><SchemaData schemaUrl="#loganOutlets_Moved2">
		<SimpleData name="id">20</SimpleData>
		<SimpleData name="id_down">-2147483647</SimpleData>
		<SimpleData name="ad8">36523</SimpleData>
	</SchemaData></ExtendedData>
      <Point><coordinates>-111.784193440445,41.7676600730756</coordinates></Point>
  </Placemark>
  <Placemark id="loganOutlets_Moved2.3">
	<ExtendedData><SchemaData schemaUrl="#loganOutlets_Moved2">
		<SimpleData name="id">30</SimpleData>
		<SimpleData name="id_down">10</SimpleData>
		<SimpleData name="ad8">8925</SimpleData>
	</SchemaData></ExtendedData>
      <Point><coordinates>-111.722991779514,41.7494171019845</coordinates></Point>
  </Placemark>
  <Placemark id="loganOutlets_Moved2.4">
	<ExtendedData><SchemaData schemaUrl="#loganOutlets_Moved2">
		<SimpleData name="id">40</SimpleData>
		<SimpleData name="id_down">20</SimpleData>
		<SimpleData name="ad8">1</SimpleData>
	</SchemaData></ExtendedData>
      <Point><coordinates>-111.715718161631,41.7767537300224</coordinates></Point>
  </Placemark>
  <Placemark id="loganOutlets_Moved2.5">
	<ExtendedData><SchemaData schemaUrl="#loganOutlets_Moved2">
		<SimpleData name="id">50</SimpleData>
		<SimpleData name="id_down">20</SimpleData>
		<SimpleData name="ad8">21830</SimpleData>
	</SchemaData></ExtendedData>
      <Point><coordinates>-111.72381107616,41.7902134166209</coordinates></Point>
  </Placemark>
</Folder>
</Document></kml>
