<?xml version="1.0" encoding="utf-8" ?>
<kml xmlns="http://www.opengis.net/kml/2.2">
<Document id="root_doc">
<Schema name="Outletsmoved5" id="Outletsmoved5">
	<SimpleField name="Dist_moved" type="int"></SimpleField>
</Schema>
<Folder><name>Outletsmoved5</name>
  <Placemark id="Outletsmoved5.1">
	<ExtendedData><SchemaData schemaUrl="#Outletsmoved5">
		<SimpleData name="Dist_moved">6</SimpleData>
	</SchemaData></ExtendedData>
      <Point><coordinates>-111.780998287106,41.7422822191384</coordinates></Point>
  </Placemark>
  <Placemark id="Outletsmoved5.2">
	<ExtendedData><SchemaData schemaUrl="#Outletsmoved5">
		<SimpleData name="Dist_moved">0</SimpleData>
	</SchemaData></ExtendedData>
      <Point><coordinates>-111.783832542519,41.7676625359212</coordinates></Point>
  </Placemark>
  <Placemark id="Outletsmoved5.3">
	<ExtendedData><SchemaData schemaUrl="#Outletsmoved5">
		<SimpleData name="Dist_moved">3</SimpleData>
	</SchemaData></ExtendedData>
      <Point><coordinates>-111.722988747784,41.749146911672</coordinates></Point>
  </Placemark>
  <Placemark id="Outletsmoved5.4">
	<ExtendedData><SchemaData schemaUrl="#Outletsmoved5">
		<SimpleData name="Dist_moved">-1</SimpleData>
	</SchemaData></ExtendedData>
      <Point><coordinates>-111.715407944778,41.7765654436319</coordinates></Point>
  </Placemark>
  <Placemark id="Outletsmoved5.5">
	<ExtendedData><SchemaData schemaUrl="#Outletsmoved5">
		<SimpleData name="Dist_moved">4</SimpleData>
	</SchemaData></ExtendedData>
      <Point><coordinates>-111.723453084784,41.7904858791354</coordinates></Point>
  </Placemark>
</Folder>
</Document></kml>
